{"type": "FeatureCollection", "features": [ {"type": "Feature", "properties": {"norad_id": 66635, "name": "STARLINK-35955", "group": "last-30-days", "lat": 42.475472243555735, "lon": -175.18144505800612, "alt_km": 440.91638151684947, "timestamp": "2025-12-22T08:58:19.045588+00:00", "meta": {"OBJECT_NAME": "STARLINK-35955", "OBJECT_ID": "2025-271U", "EPOCH": "2025-12-21T17:08:38.433408", "MEAN_MOTION": 15.3964466, "ECCENTRICITY": 0.0001, "INCLINATION": 53.1607, "RA_OF_ASC_NODE": 144.5828, "ARG_OF_PERICENTER": 92.221, "MEAN_ANOMALY": 267.891, "EPHEMERIS_TYPE": 0, "CLASSIFICATION_TYPE": "U", "NORAD_CAT_ID": 66635, "ELEMENT_SET_NO": 999, "REV_AT_EPOCH": 559, "BSTAR": 0.00051713, "MEAN_MOTION_DOT": 0.00020357, "MEAN_MOTION_DDOT": 0}, "tle": {"line1": "1 66635U 25271U   25355.71433372  .00020357  00000+0  51713-3 0  9999", "line2": "2 66635  53.1607 144.5828 0001000  92.2210 267.8910 15.39644660  5595"}}, "geometry": {"type": "Point", "coordinates": [-175.18144505800612, 42.475472243555735]}}, {"type": "Feature", "properties": {"norad_id": 66636, "name": "STARLINK-35968", "group": "last-30-days", "lat": 24.962452333429777, "lon": 161.94753164659707, "alt_km": 443.76491965171954, "timestamp": "2025-12-22T08:58:19.045599+00:00", "meta": {"OBJECT_NAME": "STARLINK-35968", "OBJECT_ID": "2025-271V", "EPOCH": "2025-12-21T17:15:19.641312", "MEAN_MOTION": 15.39654163, "ECCENTRICITY": 8.32e-05, "INCLINATION": 53.1622, "RA_OF_ASC_NODE": 144.6097, "ARG_OF_PERICENTER": 79.1661, "MEAN_ANOMALY": 280.9438, "EPHEMERIS_TYPE": 0, "CLASSIFICATION_TYPE": "U", "NORAD_CAT_ID": 66636, "ELEMENT_SET_NO": 999, "REV_AT_EPOCH": 559, "BSTAR": 0.0011002, "MEAN_MOTION_DOT": 0.00043911, "MEAN_MOTION_DDOT": 0}, "tle": {"line1": "1 66636U 25271V   25355.71897733  .00043911  00000+0  11002-2 0  9992", "line2": "2 66636  53.1622 144.6097 0000832  79.1661 280.9438 15.39654163  5598"}}, "geometry": {"type": "Point", "coordinates": [161.94753164659707, 24.962452333429777]}}, {"type": "Feature", "properties": {"norad_id": 66637, "name": "STARLINK-35953", "group": "last-30-days", "lat": 52.612640899946506, "lon": -139.7473562834696, "alt_km": 439.482757476002, "timestamp": "2025-12-22T08:58:19.045615+00:00", "meta": {"OBJECT_NAME": "STARLINK-35953", "OBJECT_ID": "2025-271W", "EPOCH": "2025-12-22T00:00:00.998784", "MEAN_MOTION": 15.39601763, "ECCENTRICITY": 0.0001027, "INCLINATION": 53.1595, "RA_OF_ASC_NODE": 143.1852, "ARG_OF_PERICENTER": 81.4019, "MEAN_ANOMALY": 88.7557, "EPHEMERIS_TYPE": 0, "CLASSIFICATION_TYPE": "U", "NORAD_CAT_ID": 66637, "ELEMENT_SET_NO": 999, "REV_AT_EPOCH": 573, "BSTAR": 0.00033097, "MEAN_MOTION_DOT": 0.00012853, "MEAN_MOTION_DDOT": 0}, "tle": {"line1": "1 66637U 25271W   25356.00001156  .00012853  00000+0  33097-3 0  9992", "line2": "2 66637  53.1595 143.1852 0001027  81.4019  88.7557 15.39601763  5731"}}, "geometry": {"type": "Point", "coordinates": [-139.7473562834696, 52.612640899946506]}}, {"type": "Feature", "properties": {"norad_id": 66638, "name": "STARLINK-35972", "group": "last-30-days", "lat": 34.579920252165365, "lon": -69.7973340325159, "alt_km": 442.32444752775154, "timestamp": "2025-12-22T08:58:19.045625+00:00", "meta": {"OBJECT_NAME": "STARLINK-35972", "OBJECT_ID": "2025-271X", "EPOCH": "2025-12-22T04:00:01.998720", "MEAN_MOTION": 15.3959577, "ECCENTRICITY": 0.0001022, "INCLINATION": 53.1606, "RA_OF_ASC_NODE": 142.2965, "ARG_OF_PERICENTER": 97.8351, "MEAN_ANOMALY": 328.1651, "EPHEMERIS_TYPE": 0, "CLASSIFICATION_TYPE": "U", "NORAD_CAT_ID": 66638, "ELEMENT_SET_NO": 999, "REV_AT_EPOCH": 575, "BSTAR": 0.00082322, "MEAN_MOTION_DOT": 0.00032643, "MEAN_MOTION_DDOT": 0}, "tle": {"line1": "1 66638U 25271X   25356.16668980  .00032643  00000+0  82322-3 0  9998", "line2": "2 66638  53.1606 142.2965 0001022  97.8351 328.1651 15.39595770  5753"}}, "geometry": {"type": "Point", "coordinates": [-69.7973340325159, 34.579920252165365]}}, {"type": "Feature", "properties": {"norad_id": 66639, "name": "STARLINK-35908", "group": "last-30-days", "lat": 15.382794351037383, "lon": -50.63472309745679, "alt_km": 445.7611598582844, "timestamp": "2025-12-22T08:58:19.045635+00:00", "meta": {"OBJECT_NAME": "STARLINK-35908", "OBJECT_ID": "2025-271Y", "EPOCH": "2025-12-22T04:00:01.998720", "MEAN_MOTION": 15.39583571, "ECCENTRICITY": 0.0001263, "INCLINATION": 53.161, "RA_OF_ASC_NODE": 142.2446, "ARG_OF_PERICENTER": 85.1275, "MEAN_ANOMALY": 6.6678, "EPHEMERIS_TYPE": 0, "CLASSIFICATION_TYPE": "U", "NORAD_CAT_ID": 66639, "ELEMENT_SET_NO": 999, "REV_AT_EPOCH": 575, "BSTAR": 0.00096814, "MEAN_MOTION_DOT": 0.00038474, "MEAN_MOTION_DDOT": 0}, "tle": {"line1": "1 66639U 25271Y   25356.16668980  .00038474  00000+0  96814-3 0  9998", "line2": "2 66639  53.1610 142.2446 0001263  85.1275   6.6678 15.39583571  5758"}}, "geometry": {"type": "Point", "coordinates": [-50.63472309745679, 15.382794351037383]}}, {"type": "Feature", "properties": {"norad_id": 66640, "name": "STARLINK-35921", "group": "last-30-days", "lat": 49.13548736377501, "lon": -98.69362193964449, "alt_km": 440.2060187351335, "timestamp": "2025-12-22T08:58:19.045646+00:00", "meta": {"OBJECT_NAME": "STARLINK-35921", "OBJECT_ID": "2025-271Z", "EPOCH": "2025-12-22T04:00:01.998720", "MEAN_MOTION": 15.39578635, "ECCENTRICITY": 8.05e-05, "INCLINATION": 53.1598, "RA_OF_ASC_NODE": 142.347, "ARG_OF_PERICENTER": 87.5412, "MEAN_ANOMALY": 312.7493, "EPHEMERIS_TYPE": 0, "CLASSIFICATION_TYPE": "U", "NORAD_CAT_ID": 66640, "ELEMENT_SET_NO": 999, "REV_AT_EPOCH": 575, "BSTAR": 0.00086827, "MEAN_MOTION_DOT": 0.0003444, "MEAN_MOTION_DDOT": 0}, "tle": {"line1": "1 66640U 25271Z   25356.16668980  .00034440  00000+0  86827-3 0  9992", "line2": "2 66640  53.1598 142.3470 0000805  87.5412 312.7493 15.39578635  5754"}}, "geometry": {"type": "Point", "coordinates": [-98.69362193964449, 49.13548736377501]}}, {"type": "Feature", "properties": {"norad_id": 66641, "name": "STARLINK-35923", "group": "last-30-days", "lat": -36.75014473408719, "lon": -4.824048025984649, "alt_km": 434.71132593506354, "timestamp": "2025-12-22T08:58:19.045656+00:00", "meta": {"OBJECT_NAME": "STARLINK-35923", "OBJECT_ID": "2025-271AA", "EPOCH": "2025-12-22T04:00:01.998720", "MEAN_MOTION": 15.45499929, "ECCENTRICITY": 0.0001084, "INCLINATION": 53.1609, "RA_OF_ASC_NODE": 142.1172, "ARG_OF_PERICENTER": 78.458, "MEAN_ANOMALY": 76.7083, "EPHEMERIS_TYPE": 0, "CLASSIFICATION_TYPE": "U", "NORAD_CAT_ID": 66641, "ELEMENT_SET_NO": 999, "REV_AT_EPOCH": 575, "BSTAR": 0.0010144, "MEAN_MOTION_DOT": 0.00049313, "MEAN_MOTION_DDOT": 0}, "tle": {"line1": "1 66641U 25271AA  25356.16668980  .00049313  00000+0  10144-2 0  9996", "line2": "2 66641  53.1609 142.1172 0001084  78.4580  76.7083 15.45499929  5757"}}, "geometry": {"type": "Point", "coordinates": [-4.824048025984649, -36.75014473408719]}}, {"type": "Feature", "properties": {"norad_id": 66642, "name": "STARLINK-35926", "group": "last-30-days", "lat": -43.32678801778313, "lon": 6.115522444599523, "alt_km": 432.3517106927411, "timestamp": "2025-12-22T08:58:19.045667+00:00", "meta": {"OBJECT_NAME": "STARLINK-35926", "OBJECT_ID": "2025-271AB", "EPOCH": "2025-12-19T17:55:19.162848", "MEAN_MOTION": 15.47687763, "ECCENTRICITY": 0.0001998, "INCLINATION": 53.1589, "RA_OF_ASC_NODE": 153.6296, "ARG_OF_PERICENTER": 136.7356, "MEAN_ANOMALY": 223.381, "EPHEMERIS_TYPE": 0, "CLASSIFICATION_TYPE": "U", "NORAD_CAT_ID": 66642, "ELEMENT_SET_NO": 999, "REV_AT_EPOCH": 525, "BSTAR": -0.0052165, "MEAN_MOTION_DOT": -0.0026545, "MEAN_MOTION_DDOT": 0}, "tle": {"line1": "1 66642U 25271AB  25353.74674957 -.00265450  00000+0 -52165-2 0  9992", "line2": "2 66642  53.1589 153.6296 0001998 136.7356 223.3810 15.47687763  5252"}}, "geometry": {"type": "Point", "coordinates": [6.115522444599523, -43.32678801778313]}}, {"type": "Feature", "properties": {"norad_id": 66643, "name": "STARLINK-35918", "group": "last-30-days", "lat": -5.101847029399508, "lon": -34.94495779583743, "alt_km": 449.0267989230915, "timestamp": "2025-12-22T08:58:19.045678+00:00", "meta": {"OBJECT_NAME": "STARLINK-35918", "OBJECT_ID": "2025-271AC", "EPOCH": "2025-12-22T04:00:01.998720", "MEAN_MOTION": 15.39584261, "ECCENTRICITY": 0.0001167, "INCLINATION": 53.1611, "RA_OF_ASC_NODE": 142.1935, "ARG_OF_PERICENTER": 81.838, "MEAN_ANOMALY": 35.6922, "EPHEMERIS_TYPE": 0, "CLASSIFICATION_TYPE": "U", "NORAD_CAT_ID": 66643, "ELEMENT_SET_NO": 999, "REV_AT_EPOCH": 575, "BSTAR": 0.00093807, "MEAN_MOTION_DOT": 0.00037262, "MEAN_MOTION_DDOT": 0}, "tle": {"line1": "1 66643U 25271AC  25356.16668980  .00037262  00000+0  93807-3 0  9996", "line2": "2 66643  53.1611 142.1935 0001167  81.8380  35.6922 15.39584261  5750"}}, "geometry": {"type": "Point", "coordinates": [-34.94495779583743, -5.101847029399508]}}, {"type": "Feature", "properties": {"norad_id": 66644, "name": "STARLINK-35938", "group": "last-30-days", "lat": -52.83780977112103, "lon": 42.59108147926784, "alt_km": 422.3231094372004, "timestamp": "2025-12-22T08:58:19.045692+00:00", "meta": {"OBJECT_NAME": "STARLINK-35938", "OBJECT_ID": "2025-271AD", "EPOCH": "2025-12-18T20:14:46.464576", "MEAN_MOTION": 15.49333178, "ECCENTRICITY": 5.997e-05, "INCLINATION": 53.1591, "RA_OF_ASC_NODE": 157.9473, "ARG_OF_PERICENTER": 93.6054, "MEAN_ANOMALY": 266.5024, "EPHEMERIS_TYPE": 0, "CLASSIFICATION_TYPE": "U", "NORAD_CAT_ID": 66644, "ELEMENT_SET_NO": 999, "REV_AT_EPOCH": 515, "BSTAR": 0.0013201346, "MEAN_MOTION_DOT": 0.00073731, "MEAN_MOTION_DDOT": 0}, "tle": {"line1": "1 66644U 25271AD  25352.84359334  .00073731  00000+0  13201-2 0  9998", "line2": "2 66644  53.1591 157.9473 0000599  93.6054 266.5024 15.49333178  5158"}}, "geometry": {"type": "Point", "coordinates": [42.59108147926784, -52.83780977112103]}}]}